STARLINK-31217          
1 59036U 24038P   26067.99010758  .00010281  00000+0  37774-3 0  9992
2 59036  43.0013 293.1531 0001104 271.0681  89.0045 15.28001451115832
TEVEL2-1                
1 63217U 25052H   26068.64782323  .00020683  00000+0  70600-3 0  9994
2 63217  97.3991 324.7682 0004767 104.8919 255.2849 15.30341923 54855
